CZ-2D R/B               
1 28738U 05024B   25336.47559759  .00028288  00000+0  46335-3 0  9990
2 28738  97.3633 343.6602 0007015  38.6777 321.4976 15.52423898124664
ALOS (DAICHI)           
1 28931U 06002A   25336.48148713  .00002028  00000+0  35090-3 0  9997
2 28931  98.1076 288.0423 0000727 101.1193 259.0095 14.69435445 59206
H-2A R/B                
1 28932U 06002B   25336.34566351  .00012762  00000+0  67669-3 0  9998
2 28932  98.2305 110.2479 0054536 211.7576 148.0361 15.14228655 79692
RESURS-DK 1             
1 29228U 06021A   25336.51076117  .00004154  00000+0  24695-3 0  9991
2 29228  69.9324 128.2693 0007829 266.0384  93.9886 15.12065188 72834
CZ-4B R/B               
1 29507U 06046C   25336.14081279  .00006411  00000+0  33575-3 0  9997
2 29507  97.5755  16.3085 0032743 244.4093 115.3754 15.15699166 45263
CZ-2C R/B               
1 31114U 07010B   25336.29169377  .00000233  00000+0  12619-3 0  9990
2 31114  98.3972  89.4685 0058422 216.5405 143.1780 14.20202625965899
COSMO-SKYMED 1          
1 31598U 07023A   25336.48567668  .00004822  00000+0  43902-3 0  9993
2 31598  97.8845 161.8183 0001498  83.2259 276.9132 14.95645790   378
COSMOS 2428             
1 31792U 07029A   25336.47266883 -.00000003  00000+0  24112-4 0  9990
2 31792  70.9374  47.4362 0003092  39.3023 320.8322 14.12886798950361
SL-16 R/B               
1 31793U 07029B   25336.49884757 -.00000159  00000+0 -57538-4 0  9990
2 31793  70.9770  16.6854 0002442 265.9956 194.9293 14.14816464951628
KORONAS-FOTON           
1 33504U 09003A   25336.49477751  .00013786  00000+0  33421-3 0  9990
2 33504  82.4327  16.7193 0012606 141.3751 218.8400 15.40843573930765
CZ-2C R/B               
1 37731U 11030B   25336.52838031  .00002468  00000+0  31954-3 0  9999
2 37731  97.8393 290.8623 0051803 307.7497 126.2452 14.80843811775713
H-2A R/B                
1 38341U 12025E   25336.46217404  .00004254  00000+0  39452-3 0  9996
2 38341  98.4576 290.9016 0043931 271.1253  88.4932 14.94335048733691
