CCSDS_OMM_VERS = 2.0
CREATION_DATE  = 
ORIGINATOR     = 

OBJECT_NAME    = CZ-2D R/B
OBJECT_ID      = 2005-024B
CENTER_NAME    = EARTH
REF_FRAME      = TEME
TIME_SYSTEM    = UTC
MEAN_ELEMENT_THEORY = SGP/SGP4

EPOCH          = 2025-12-02T11:24:51.631776
MEAN_MOTION    = 15.52423898
ECCENTRICITY   = .0007015
INCLINATION    = 97.3633
RA_OF_ASC_NODE = 343.6602
ARG_OF_PERICENTER = 38.6777
MEAN_ANOMALY   = 321.4976

EPHEMERIS_TYPE = 0
CLASSIFICATION_TYPE = U
NORAD_CAT_ID   = 28738
ELEMENT_SET_NO = 999
REV_AT_EPOCH   = 12466
BSTAR          = .46335E-3
MEAN_MOTION_DOT = .28288E-3
MEAN_MOTION_DDOT = 0

CCSDS_OMM_VERS = 2.0
CREATION_DATE  = 
ORIGINATOR     = 

OBJECT_NAME    = ALOS (DAICHI)
OBJECT_ID      = 2006-002A
CENTER_NAME    = EARTH
REF_FRAME      = TEME
TIME_SYSTEM    = UTC
MEAN_ELEMENT_THEORY = SGP/SGP4

EPOCH          = 2025-12-02T11:33:20.488032
MEAN_MOTION    = 14.69435445
ECCENTRICITY   = .0000727
INCLINATION    = 98.1076
RA_OF_ASC_NODE = 288.0423
ARG_OF_PERICENTER = 101.1193
MEAN_ANOMALY   = 259.0095

EPHEMERIS_TYPE = 0
CLASSIFICATION_TYPE = U
NORAD_CAT_ID   = 28931
ELEMENT_SET_NO = 999
REV_AT_EPOCH   = 5920
BSTAR          = .3509E-3
MEAN_MOTION_DOT = .2028E-4
MEAN_MOTION_DDOT = 0

CCSDS_OMM_VERS = 2.0
CREATION_DATE  = 
ORIGINATOR     = 

OBJECT_NAME    = H-2A R/B
OBJECT_ID      = 2006-002B
CENTER_NAME    = EARTH
REF_FRAME      = TEME
TIME_SYSTEM    = UTC
MEAN_ELEMENT_THEORY = SGP/SGP4

EPOCH          = 2025-12-02T08:17:45.327264
MEAN_MOTION    = 15.14228655
ECCENTRICITY   = .0054536
INCLINATION    = 98.2305
RA_OF_ASC_NODE = 110.2479
ARG_OF_PERICENTER = 211.7576
MEAN_ANOMALY   = 148.0361

EPHEMERIS_TYPE = 0
CLASSIFICATION_TYPE = U
NORAD_CAT_ID   = 28932
ELEMENT_SET_NO = 999
REV_AT_EPOCH   = 7969
BSTAR          = .67669E-3
MEAN_MOTION_DOT = .12762E-3
MEAN_MOTION_DDOT = 0

CCSDS_OMM_VERS = 2.0
CREATION_DATE  = 
ORIGINATOR     = 

OBJECT_NAME    = RESURS-DK 1
OBJECT_ID      = 2006-021A
CENTER_NAME    = EARTH
REF_FRAME      = TEME
TIME_SYSTEM    = UTC
MEAN_ELEMENT_THEORY = SGP/SGP4

EPOCH          = 2025-12-02T12:15:29.765088
MEAN_MOTION    = 15.12065188
ECCENTRICITY   = .0007829
INCLINATION    = 69.9324
RA_OF_ASC_NODE = 128.2693
ARG_OF_PERICENTER = 266.0384
MEAN_ANOMALY   = 93.9886

EPHEMERIS_TYPE = 0
CLASSIFICATION_TYPE = U
NORAD_CAT_ID   = 29228
ELEMENT_SET_NO = 999
REV_AT_EPOCH   = 7283
BSTAR          = .24695E-3
MEAN_MOTION_DOT = .4154E-4
MEAN_MOTION_DDOT = 0

CCSDS_OMM_VERS = 2.0
CREATION_DATE  = 
ORIGINATOR     = 

OBJECT_NAME    = CZ-4B R/B
OBJECT_ID      = 2006-046C
CENTER_NAME    = EARTH
REF_FRAME      = TEME
TIME_SYSTEM    = UTC
MEAN_ELEMENT_THEORY = SGP/SGP4

EPOCH          = 2025-12-02T03:22:46.225056
MEAN_MOTION    = 15.15699166
ECCENTRICITY   = .00327432
INCLINATION    = 97.5755
RA_OF_ASC_NODE = 16.3085
ARG_OF_PERICENTER = 244.4093
MEAN_ANOMALY   = 115.3754

EPHEMERIS_TYPE = 0
CLASSIFICATION_TYPE = U
NORAD_CAT_ID   = 29507
ELEMENT_SET_NO = 999
REV_AT_EPOCH   = 4526
BSTAR          = .33575072E-3
MEAN_MOTION_DOT = .6411E-4
MEAN_MOTION_DDOT = 0

CCSDS_OMM_VERS = 2.0
CREATION_DATE  = 
ORIGINATOR     = 

OBJECT_NAME    = CZ-2C R/B
OBJECT_ID      = 2007-010B
CENTER_NAME    = EARTH
REF_FRAME      = TEME
TIME_SYSTEM    = UTC
MEAN_ELEMENT_THEORY = SGP/SGP4

EPOCH          = 2025-12-02T07:00:02.341728
MEAN_MOTION    = 14.20202625
ECCENTRICITY   = .0058422
INCLINATION    = 98.3972
RA_OF_ASC_NODE = 89.4685
ARG_OF_PERICENTER = 216.5405
MEAN_ANOMALY   = 143.1780

EPHEMERIS_TYPE = 0
CLASSIFICATION_TYPE = U
NORAD_CAT_ID   = 31114
ELEMENT_SET_NO = 999
REV_AT_EPOCH   = 96589
BSTAR          = .12619E-3
MEAN_MOTION_DOT = .233E-5
MEAN_MOTION_DDOT = 0

CCSDS_OMM_VERS = 2.0
CREATION_DATE  = 
ORIGINATOR     = 

OBJECT_NAME    = COSMO-SKYMED 1
OBJECT_ID      = 2007-023A
CENTER_NAME    = EARTH
REF_FRAME      = TEME
TIME_SYSTEM    = UTC
MEAN_ELEMENT_THEORY = SGP/SGP4

EPOCH          = 2025-12-02T11:39:22.465152
MEAN_MOTION    = 14.95645790
ECCENTRICITY   = .0001498
INCLINATION    = 97.8845
RA_OF_ASC_NODE = 161.8183
ARG_OF_PERICENTER = 83.2259
MEAN_ANOMALY   = 276.9132

EPHEMERIS_TYPE = 0
CLASSIFICATION_TYPE = U
NORAD_CAT_ID   = 31598
ELEMENT_SET_NO = 999
REV_AT_EPOCH   = 37
BSTAR          = .43902E-3
MEAN_MOTION_DOT = .4822E-4
MEAN_MOTION_DDOT = 0

CCSDS_OMM_VERS = 2.0
CREATION_DATE  = 
ORIGINATOR     = 

OBJECT_NAME    = COSMOS 2428
OBJECT_ID      = 2007-029A
CENTER_NAME    = EARTH
REF_FRAME      = TEME
TIME_SYSTEM    = UTC
MEAN_ELEMENT_THEORY = SGP/SGP4

EPOCH          = 2025-12-02T11:20:38.586912
MEAN_MOTION    = 14.12886798
ECCENTRICITY   = .0003092
INCLINATION    = 70.9374
RA_OF_ASC_NODE = 47.4362
ARG_OF_PERICENTER = 39.3023
MEAN_ANOMALY   = 320.8322

EPHEMERIS_TYPE = 0
CLASSIFICATION_TYPE = U
NORAD_CAT_ID   = 31792
ELEMENT_SET_NO = 999
REV_AT_EPOCH   = 95036
BSTAR          = .24112E-4
MEAN_MOTION_DOT = -.3E-7
MEAN_MOTION_DDOT = 0

CCSDS_OMM_VERS = 2.0
CREATION_DATE  = 
ORIGINATOR     = 

OBJECT_NAME    = SL-16 R/B
OBJECT_ID      = 2007-029B
CENTER_NAME    = EARTH
REF_FRAME      = TEME
TIME_SYSTEM    = UTC
MEAN_ELEMENT_THEORY = SGP/SGP4

EPOCH          = 2025-12-02T11:58:20.430048
MEAN_MOTION    = 14.14816464
ECCENTRICITY   = .0002442
INCLINATION    = 70.9770
RA_OF_ASC_NODE = 16.6854
ARG_OF_PERICENTER = 265.9956
MEAN_ANOMALY   = 194.9293

EPHEMERIS_TYPE = 0
CLASSIFICATION_TYPE = U
NORAD_CAT_ID   = 31793
ELEMENT_SET_NO = 999
REV_AT_EPOCH   = 95162
BSTAR          = -.57538E-4
MEAN_MOTION_DOT = -.159E-5
MEAN_MOTION_DDOT = 0

CCSDS_OMM_VERS = 2.0
CREATION_DATE  = 
ORIGINATOR     = 

OBJECT_NAME    = KORONAS-FOTON
OBJECT_ID      = 2009-003A
CENTER_NAME    = EARTH
REF_FRAME      = TEME
TIME_SYSTEM    = UTC
MEAN_ELEMENT_THEORY = SGP/SGP4

EPOCH          = 2025-12-02T11:52:28.776864
MEAN_MOTION    = 15.40843573
ECCENTRICITY   = .0012606
INCLINATION    = 82.4327
RA_OF_ASC_NODE = 16.7193
ARG_OF_PERICENTER = 141.3751
MEAN_ANOMALY   = 218.8400

EPHEMERIS_TYPE = 0
CLASSIFICATION_TYPE = U
NORAD_CAT_ID   = 33504
ELEMENT_SET_NO = 999
REV_AT_EPOCH   = 93076
BSTAR          = .33421E-3
MEAN_MOTION_DOT = .13786E-3
MEAN_MOTION_DDOT = 0

CCSDS_OMM_VERS = 2.0
CREATION_DATE  = 
ORIGINATOR     = 

OBJECT_NAME    = CZ-2C R/B
OBJECT_ID      = 2011-030B
CENTER_NAME    = EARTH
REF_FRAME      = TEME
TIME_SYSTEM    = UTC
MEAN_ELEMENT_THEORY = SGP/SGP4

EPOCH          = 2025-12-02T12:40:52.058784
MEAN_MOTION    = 14.80843811
ECCENTRICITY   = .0051803
INCLINATION    = 97.8393
RA_OF_ASC_NODE = 290.8623
ARG_OF_PERICENTER = 307.7497
MEAN_ANOMALY   = 126.2452

EPHEMERIS_TYPE = 0
CLASSIFICATION_TYPE = U
NORAD_CAT_ID   = 37731
ELEMENT_SET_NO = 999
REV_AT_EPOCH   = 77571
BSTAR          = .31954E-3
MEAN_MOTION_DOT = .2468E-4
MEAN_MOTION_DDOT = 0

CCSDS_OMM_VERS = 2.0
CREATION_DATE  = 
ORIGINATOR     = 

OBJECT_NAME    = H-2A R/B
OBJECT_ID      = 2012-025E
CENTER_NAME    = EARTH
REF_FRAME      = TEME
TIME_SYSTEM    = UTC
MEAN_ELEMENT_THEORY = SGP/SGP4

EPOCH          = 2025-12-02T11:05:31.837056
MEAN_MOTION    = 14.94335048
ECCENTRICITY   = .0043931
INCLINATION    = 98.4576
RA_OF_ASC_NODE = 290.9016
ARG_OF_PERICENTER = 271.1253
MEAN_ANOMALY   = 88.4932

EPHEMERIS_TYPE = 0
CLASSIFICATION_TYPE = U
NORAD_CAT_ID   = 38341
ELEMENT_SET_NO = 999
REV_AT_EPOCH   = 73369
BSTAR          = .39452E-3
MEAN_MOTION_DOT = .4254E-4
MEAN_MOTION_DDOT = 0

